IRIDIUM 166             
1 43570U 18061B   24086.91039530  .00000281  00000+0  93195-4 0  9996
2 43570  86.3999  36.1794 0002558  86.4687 273.6801 14.34219715296971
IRIDIUM 158             
1 43571U 18061C   24086.94844977  .00000173  00000+0  54668-4 0  9991
2 43571  86.3999  36.1728 0002344  81.6783 278.4679 14.34215572296946
IRIDIUM 165             
1 43572U 18061D   24086.83428655  .00000048  00000+0  10225-4 0  9993
2 43572  86.3999  36.2512 0002262  80.2676 279.8775 14.34218038296957
IRIDIUM 155             
1 43573U 18061E   24086.93575115  .00000625  00000+0  21618-3 0  9997
2 43573  86.3985  36.1170 0002506  88.8758 271.2725 14.34216568296933
IRIDIUM 154             
1 43574U 18061F   24086.91673839  .00000088  00000+0  24282-4 0  9992
2 43574  86.4001  36.2199 0002001  87.3172 272.8253 14.34218559296980
IRIDIUM 163             
1 43575U 18061G   24086.89770374  .00001198  00000+0  42051-3 0  9998
2 43575  86.3998  36.1685 0002246  88.1468 271.9985 14.34215160296956
IRIDIUM 156             
1 43576U 18061H   24086.94211003  .00000124  00000+0  37338-4 0  9995
2 43576  86.3998  36.1564 0002533  85.5993 274.5492 14.34216753296957
IRIDIUM 164             
1 43577U 18061J   24086.92307865  .00000410  00000+0  13925-3 0  9999
2 43577  86.4000  36.1919 0002176  80.7648 279.3794 14.34219488296994
