<?xml version="1.0" encoding="UTF-8"?>
<ndm xmlns:xsi="http://www.w3.org/2001/XMLSchema-instance" xsi:noNamespaceSchemaLocation="https://sanaregistry.org/r/ndmxml_unqualified/ndmxml-2.0.0-master-2.0.xsd">
<omm id="CCSDS_OMM_VERS" version="2.0">
<header><CREATION_DATE/><ORIGINATOR/></header><body><segment><metadata><OBJECT_NAME>IRIDIUM 166</OBJECT_NAME><OBJECT_ID>2018-061B</OBJECT_ID><CENTER_NAME>EARTH</CENTER_NAME><REF_FRAME>TEME</REF_FRAME><TIME_SYSTEM>UTC</TIME_SYSTEM><MEAN_ELEMENT_THEORY>SGP4</MEAN_ELEMENT_THEORY></metadata><data><meanElements><EPOCH>2024-03-26T21:50:58.153920</EPOCH><MEAN_MOTION>14.34219715</MEAN_MOTION><ECCENTRICITY>.0002558</ECCENTRICITY><INCLINATION>86.3999</INCLINATION><RA_OF_ASC_NODE>36.1794</RA_OF_ASC_NODE><ARG_OF_PERICENTER>86.4687</ARG_OF_PERICENTER><MEAN_ANOMALY>273.6801</MEAN_ANOMALY></meanElements><tleParameters><EPHEMERIS_TYPE>0</EPHEMERIS_TYPE><CLASSIFICATION_TYPE>U</CLASSIFICATION_TYPE><NORAD_CAT_ID>43570</NORAD_CAT_ID><ELEMENT_SET_NO>999</ELEMENT_SET_NO><REV_AT_EPOCH>29697</REV_AT_EPOCH><BSTAR>.93195E-4</BSTAR><MEAN_MOTION_DOT>.281E-5</MEAN_MOTION_DOT><MEAN_MOTION_DDOT>0</MEAN_MOTION_DDOT></tleParameters></data></segment></body></omm>
<omm id="CCSDS_OMM_VERS" version="2.0">
<header><CREATION_DATE/><ORIGINATOR/></header><body><segment><metadata><OBJECT_NAME>IRIDIUM 158</OBJECT_NAME><OBJECT_ID>2018-061C</OBJECT_ID><CENTER_NAME>EARTH</CENTER_NAME><REF_FRAME>TEME</REF_FRAME><TIME_SYSTEM>UTC</TIME_SYSTEM><MEAN_ELEMENT_THEORY>SGP4</MEAN_ELEMENT_THEORY></metadata><data><meanElements><EPOCH>2024-03-26T22:45:46.060128</EPOCH><MEAN_MOTION>14.34215572</MEAN_MOTION><ECCENTRICITY>.0002344</ECCENTRICITY><INCLINATION>86.3999</INCLINATION><RA_OF_ASC_NODE>36.1728</RA_OF_ASC_NODE><ARG_OF_PERICENTER>81.6783</ARG_OF_PERICENTER><MEAN_ANOMALY>278.4679</MEAN_ANOMALY></meanElements><tleParameters><EPHEMERIS_TYPE>0</EPHEMERIS_TYPE><CLASSIFICATION_TYPE>U</CLASSIFICATION_TYPE><NORAD_CAT_ID>43571</NORAD_CAT_ID><ELEMENT_SET_NO>999</ELEMENT_SET_NO><REV_AT_EPOCH>29694</REV_AT_EPOCH><BSTAR>.54668E-4</BSTAR><MEAN_MOTION_DOT>.173E-5</MEAN_MOTION_DOT><MEAN_MOTION_DDOT>0</MEAN_MOTION_DDOT></tleParameters></data></segment></body></omm>
<omm id="CCSDS_OMM_VERS" version="2.0">
<header><CREATION_DATE/><ORIGINATOR/></header><body><segment><metadata><OBJECT_NAME>IRIDIUM 165</OBJECT_NAME><OBJECT_ID>2018-061D</OBJECT_ID><CENTER_NAME>EARTH</CENTER_NAME><REF_FRAME>TEME</REF_FRAME><TIME_SYSTEM>UTC</TIME_SYSTEM><MEAN_ELEMENT_THEORY>SGP4</MEAN_ELEMENT_THEORY></metadata><data><meanElements><EPOCH>2024-03-26T20:01:22.357920</EPOCH><MEAN_MOTION>14.34218038</MEAN_MOTION><ECCENTRICITY>.0002262</ECCENTRICITY><INCLINATION>86.3999</INCLINATION><RA_OF_ASC_NODE>36.2512</RA_OF_ASC_NODE><ARG_OF_PERICENTER>80.2676</ARG_OF_PERICENTER><MEAN_ANOMALY>279.8775</MEAN_ANOMALY></meanElements><tleParameters><EPHEMERIS_TYPE>0</EPHEMERIS_TYPE><CLASSIFICATION_TYPE>U</CLASSIFICATION_TYPE><NORAD_CAT_ID>43572</NORAD_CAT_ID><ELEMENT_SET_NO>999</ELEMENT_SET_NO><REV_AT_EPOCH>29695</REV_AT_EPOCH><BSTAR>.10225E-4</BSTAR><MEAN_MOTION_DOT>.48E-6</MEAN_MOTION_DOT><MEAN_MOTION_DDOT>0</MEAN_MOTION_DDOT></tleParameters></data></segment></body></omm>
<omm id="CCSDS_OMM_VERS" version="2.0">
<header><CREATION_DATE/><ORIGINATOR/></header><body><segment><metadata><OBJECT_NAME>IRIDIUM 155</OBJECT_NAME><OBJECT_ID>2018-061E</OBJECT_ID><CENTER_NAME>EARTH</CENTER_NAME><REF_FRAME>TEME</REF_FRAME><TIME_SYSTEM>UTC</TIME_SYSTEM><MEAN_ELEMENT_THEORY>SGP4</MEAN_ELEMENT_THEORY></metadata><data><meanElements><EPOCH>2024-03-26T22:27:28.899360</EPOCH><MEAN_MOTION>14.34216568</MEAN_MOTION><ECCENTRICITY>.0002506</ECCENTRICITY><INCLINATION>86.3985</INCLINATION><RA_OF_ASC_NODE>36.1170</RA_OF_ASC_NODE><ARG_OF_PERICENTER>88.8758</ARG_OF_PERICENTER><MEAN_ANOMALY>271.2725</MEAN_ANOMALY></meanElements><tleParameters><EPHEMERIS_TYPE>0</EPHEMERIS_TYPE><CLASSIFICATION_TYPE>U</CLASSIFICATION_TYPE><NORAD_CAT_ID>43573</NORAD_CAT_ID><ELEMENT_SET_NO>999</ELEMENT_SET_NO><REV_AT_EPOCH>29693</REV_AT_EPOCH><BSTAR>.21618E-3</BSTAR><MEAN_MOTION_DOT>.625E-5</MEAN_MOTION_DOT><MEAN_MOTION_DDOT>0</MEAN_MOTION_DDOT></tleParameters></data></segment></body></omm>
<omm id="CCSDS_OMM_VERS" version="2.0">
<header><CREATION_DATE/><ORIGINATOR/></header><body><segment><metadata><OBJECT_NAME>IRIDIUM 154</OBJECT_NAME><OBJECT_ID>2018-061F</OBJECT_ID><CENTER_NAME>EARTH</CENTER_NAME><REF_FRAME>TEME</REF_FRAME><TIME_SYSTEM>UTC</TIME_SYSTEM><MEAN_ELEMENT_THEORY>SGP4</MEAN_ELEMENT_THEORY></metadata><data><meanElements><EPOCH>2024-03-26T22:00:06.196896</EPOCH><MEAN_MOTION>14.34218559</MEAN_MOTION><ECCENTRICITY>.0002001</ECCENTRICITY><INCLINATION>86.4001</INCLINATION><RA_OF_ASC_NODE>36.2199</RA_OF_ASC_NODE><ARG_OF_PERICENTER>87.3172</ARG_OF_PERICENTER><MEAN_ANOMALY>272.8253</MEAN_ANOMALY></meanElements><tleParameters><EPHEMERIS_TYPE>0</EPHEMERIS_TYPE><CLASSIFICATION_TYPE>U</CLASSIFICATION_TYPE><NORAD_CAT_ID>43574</NORAD_CAT_ID><ELEMENT_SET_NO>999</ELEMENT_SET_NO><REV_AT_EPOCH>29698</REV_AT_EPOCH><BSTAR>.24282E-4</BSTAR><MEAN_MOTION_DOT>.88E-6</MEAN_MOTION_DOT><MEAN_MOTION_DDOT>0</MEAN_MOTION_DDOT></tleParameters></data></segment></body></omm>
<omm id="CCSDS_OMM_VERS" version="2.0">
<header><CREATION_DATE/><ORIGINATOR/></header><body><segment><metadata><OBJECT_NAME>IRIDIUM 163</OBJECT_NAME><OBJECT_ID>2018-061G</OBJECT_ID><CENTER_NAME>EARTH</CENTER_NAME><REF_FRAME>TEME</REF_FRAME><TIME_SYSTEM>UTC</TIME_SYSTEM><MEAN_ELEMENT_THEORY>SGP4</MEAN_ELEMENT_THEORY></metadata><data><meanElements><EPOCH>2024-03-26T21:32:41.603136</EPOCH><MEAN_MOTION>14.34215160</MEAN_MOTION><ECCENTRICITY>.0002246</ECCENTRICITY><INCLINATION>86.3998</INCLINATION><RA_OF_ASC_NODE>36.1685</RA_OF_ASC_NODE><ARG_OF_PERICENTER>88.1468</ARG_OF_PERICENTER><MEAN_ANOMALY>271.9985</MEAN_ANOMALY></meanElements><tleParameters><EPHEMERIS_TYPE>0</EPHEMERIS_TYPE><CLASSIFICATION_TYPE>U</CLASSIFICATION_TYPE><NORAD_CAT_ID>43575</NORAD_CAT_ID><ELEMENT_SET_NO>999</ELEMENT_SET_NO><REV_AT_EPOCH>29695</REV_AT_EPOCH><BSTAR>.42051E-3</BSTAR><MEAN_MOTION_DOT>.1198E-4</MEAN_MOTION_DOT><MEAN_MOTION_DDOT>0</MEAN_MOTION_DDOT></tleParameters></data></segment></body></omm>
<omm id="CCSDS_OMM_VERS" version="2.0">
<header><CREATION_DATE/><ORIGINATOR/></header><body><segment><metadata><OBJECT_NAME>IRIDIUM 156</OBJECT_NAME><OBJECT_ID>2018-061H</OBJECT_ID><CENTER_NAME>EARTH</CENTER_NAME><REF_FRAME>TEME</REF_FRAME><TIME_SYSTEM>UTC</TIME_SYSTEM><MEAN_ELEMENT_THEORY>SGP4</MEAN_ELEMENT_THEORY></metadata><data><meanElements><EPOCH>2024-03-26T22:36:38.306592</EPOCH><MEAN_MOTION>14.34216753</MEAN_MOTION><ECCENTRICITY>.0002533</ECCENTRICITY><INCLINATION>86.3998</INCLINATION><RA_OF_ASC_NODE>36.1564</RA_OF_ASC_NODE><ARG_OF_PERICENTER>85.5993</ARG_OF_PERICENTER><MEAN_ANOMALY>274.5492</MEAN_ANOMALY></meanElements><tleParameters><EPHEMERIS_TYPE>0</EPHEMERIS_TYPE><CLASSIFICATION_TYPE>U</CLASSIFICATION_TYPE><NORAD_CAT_ID>43576</NORAD_CAT_ID><ELEMENT_SET_NO>999</ELEMENT_SET_NO><REV_AT_EPOCH>29695</REV_AT_EPOCH><BSTAR>.37338E-4</BSTAR><MEAN_MOTION_DOT>.124E-5</MEAN_MOTION_DOT><MEAN_MOTION_DDOT>0</MEAN_MOTION_DDOT></tleParameters></data></segment></body></omm>
<omm id="CCSDS_OMM_VERS" version="2.0">
<header><CREATION_DATE/><ORIGINATOR/></header><body><segment><metadata><OBJECT_NAME>IRIDIUM 164</OBJECT_NAME><OBJECT_ID>2018-061J</OBJECT_ID><CENTER_NAME>EARTH</CENTER_NAME><REF_FRAME>TEME</REF_FRAME><TIME_SYSTEM>UTC</TIME_SYSTEM><MEAN_ELEMENT_THEORY>SGP4</MEAN_ELEMENT_THEORY></metadata><data><meanElements><EPOCH>2024-03-26T22:09:13.995360</EPOCH><MEAN_MOTION>14.34219488</MEAN_MOTION><ECCENTRICITY>.0002176</ECCENTRICITY><INCLINATION>86.4000</INCLINATION><RA_OF_ASC_NODE>36.1919</RA_OF_ASC_NODE><ARG_OF_PERICENTER>80.7648</ARG_OF_PERICENTER><MEAN_ANOMALY>279.3794</MEAN_ANOMALY></meanElements><tleParameters><EPHEMERIS_TYPE>0</EPHEMERIS_TYPE><CLASSIFICATION_TYPE>U</CLASSIFICATION_TYPE><NORAD_CAT_ID>43577</NORAD_CAT_ID><ELEMENT_SET_NO>999</ELEMENT_SET_NO><REV_AT_EPOCH>29699</REV_AT_EPOCH><BSTAR>.13925E-3</BSTAR><MEAN_MOTION_DOT>.41E-5</MEAN_MOTION_DOT><MEAN_MOTION_DDOT>0</MEAN_MOTION_DDOT></tleParameters></data></segment></body></omm>

</ndm>
